O3B MPOWER F1           
1 54755U 22174A   24082.28523669 -.00000029  00000+0  00000+0 0  9999
2 54755   0.0651   5.5177 0006560   4.2787 163.3423  5.00114933 24497
